[{"OBJECT_NAME":"STARLINK-36176","OBJECT_ID":"2025-293Z","EPOCH":"2026-03-09T11:58:33.118752","MEAN_MOTION":14.983336,"ECCENTRICITY":0.00033076,"INCLINATION":70.0005,"RA_OF_ASC_NODE":94.7588,"ARG_OF_PERICENTER":263.525,"MEAN_ANOMALY":96.5533,"EPHEMERIS_TYPE":0,"CLASSIFICATION_TYPE":"U","NORAD_CAT_ID":67026,"ELEMENT_SET_NO":999,"REV_AT_EPOCH":1485,"BSTAR":0.00011101283,"MEAN_MOTION_DOT":1.232e-5,"MEAN_MOTION_DDOT":0},{"OBJECT_NAME":"FENGYUN 1C DEB","OBJECT_ID":"1999-025BYF","EPOCH":"2026-02-08T04:35:15.972576","MEAN_MOTION":14.66466333,"ECCENTRICITY":0.01751215,"INCLINATION":99.0616,"RA_OF_ASC_NODE":209.5417,"ARG_OF_PERICENTER":124.4609,"MEAN_ANOMALY":237.3278,"EPHEMERIS_TYPE":0,"CLASSIFICATION_TYPE":"U","NORAD_CAT_ID":31540,"ELEMENT_SET_NO":999,"REV_AT_EPOCH":99143,"BSTAR":0.0011063664,"MEAN_MOTION_DOT":7.645e-5,"MEAN_MOTION_DDOT":0}]
